NORAD_CAT_ID,OBJECT_NAME,OBJECT_TYPE,EPOCH,MEAN_MOTION,ECCENTRICITY,INCLINATION,RA_OF_ASC_NODE,ARG_OF_PERICENTER,MEAN_ANOMALY,BSTAR,MEAN_MOTION_DOT,MEAN_MOTION_DDOT,TLE_LINE0,TLE_LINE1,TLE_LINE2,SEMIMAJOR_AXIS,PERIOD,APOGEE,PERIGEE,DECAYED
52579.0,STARLINK-3893,PAYLOAD,2023-01-22 19:26:16,15.08849266,0.0001505,53.2141,220.2238,80.8338,279.2824,0.00022214,3.2500000000000004e-05,0.0,0 STARLINK-3893,1 52579U 22051AV  23022.80991288  .00003250  00000-0  22214-3 0  9996,2 52579  53.2141 220.2238 0001505  80.8338 279.2824 15.08849266 39067,6917.852,95.437,540.758,538.6759999999999,0.0
52579.0,STARLINK-3893,PAYLOAD,2023-01-23 12:55:31,15.08839722,0.0001527,53.2141,216.9529,81.6558,278.4607,0.00015201,2.132e-05,0.0,0 STARLINK-3893,1 52579U 22051AV  23023.53855684  .00002132  00000-0  15201-3 0  9992,2 52579  53.2141 216.9529 0001527  81.6558 278.4607 15.08839722 39177,6917.880999999999,95.438,540.803,538.69,0.0
52579.0,STARLINK-3893,PAYLOAD,2023-01-24 19:07:50,15.08848333,0.0001382,53.2152,211.3022,85.0092,275.1057,4.9087e-05,4.94e-06,0.0,0 STARLINK-3893,1 52579U 22051AV  23024.79710884  .00000494  00000-0  49087-4 0  9992,2 52579  53.2152 211.3022 0001382  85.0092 275.1057 15.08848333 39368,6917.855,95.437,540.6759999999999,538.764,0.0
52579.0,STARLINK-3893,PAYLOAD,2023-01-25 12:37:05,15.08836367,0.0001399,53.215,208.031,88.9938,271.1214,4.9896000000000005e-05,5.06e-06,0.0,0 STARLINK-3893,1 52579U 22051AV  23025.52575510  .00000506  00000-0  49896-4 0  9991,2 52579  53.2150 208.0310 0001399  88.9938 271.1214 15.08836367 39408,6917.891,95.438,540.724,538.789,0.0
52579.0,STARLINK-3893,PAYLOAD,2023-01-25 15:47:51,15.08835573,0.0001379,53.2151,207.4362,88.9611,271.1539,4.1093e-05,3.66e-06,0.0,0 STARLINK-3893,1 52579U 22051AV  23025.65823615  .00000366  00000-0  41093-4 0  9992,2 52579  53.2151 207.4362 0001379  88.9611 271.1539 15.08835573 39492,6917.894,95.438,540.7130000000001,538.805,0.0
52579.0,STARLINK-3893,PAYLOAD,2023-01-25 17:23:14,15.08835451,0.0001372,53.2151,207.1389,88.71,271.405,3.8301e-05,3.22e-06,0.0,0 STARLINK-3893,1 52579U 22051AV  23025.72447635  .00000322  00000-0  38301-4 0  9994,2 52579  53.2151 207.1389 0001372  88.7100 271.4050 15.08835451 39432,6917.894,95.438,540.7080000000001,538.81,0.0
52579.0,STARLINK-3893,PAYLOAD,2023-01-26 04:30:56,15.08838861,0.0001322,53.2153,205.0578,82.6527,277.4615,4.3779e-05,4.09e-06,0.0,0 STARLINK-3893,1 52579U 22051AV  23026.18815468  .00000409  00000-0  43779-4 0  9999,2 52579  53.2153 205.0578 0001322  82.6527 277.4615 15.08838861 39501,6917.884,95.438,540.663,538.8340000000001,0.0
52579.0,STARLINK-3893,PAYLOAD,2023-01-26 20:24:48,15.08836894,0.0001299,53.2154,202.083,89.9108,270.2033,6.3724e-05,7.26e-06,0.0,0 STARLINK-3893,1 52579U 22051AV  23026.85055571  .00000726  00000-0  63724-4 0  9998,2 52579  53.2154 202.0830 0001299  89.9108 270.2033 15.08836894 39675,6917.89,95.438,540.654,538.856,0.0
52579.0,STARLINK-3893,PAYLOAD,2023-01-27 04:21:43,15.08837075,0.000125,53.2154,200.5961,90.4929,269.6207,-6.2701e-06,-3.88e-06,0.0,0 STARLINK-3893,1 52579U 22051AV  23027.18175736 -.00000388  00000-0 -62701-5 0  9992,2 52579  53.2154 200.5961 0001250  90.4929 269.6207 15.08837075 39653,6917.889,95.438,540.619,538.89,0.0
52579.0,STARLINK-3893,PAYLOAD,2023-01-27 13:54:03,15.08831177,0.0001261,53.2154,198.8119,89.2785,270.8351,3.4759000000000004e-05,2.65e-06,0.0,0 STARLINK-3893,1 52579U 22051AV  23027.57920211  .00000265  00000-0  34759-4 0  9994,2 52579  53.2154 198.8119 0001261  89.2785 270.8351 15.08831177 39780,6917.906999999999,95.438,540.645,538.9,0.0
52579.0,STARLINK-3893,PAYLOAD,2023-01-27 18:40:12,15.08818456,0.0001233,53.216,197.9193,84.8268,275.2865,0.00027573,4.101e-05,0.0,0 STARLINK-3893,1 52579U 22051AV  23027.77792584  .00004101  00000-0  27573-3 0  9994,2 52579  53.2160 197.9193 0001233  84.8268 275.2865 15.08818456 39745,6917.946,95.439,540.664,538.9580000000001,0.0
52579.0,STARLINK-3893,PAYLOAD,2023-01-28 04:12:30,15.08838775,0.0001184,53.2156,196.1354,89.0723,271.0405,5.7847e-05,6.33e-06,0.0,0 STARLINK-3893,1 52579U 22051AV  23028.17535758  .00000633  00000-0  57847-4 0  9991,2 52579  53.2156 196.1354 0001184  89.0723 271.0405 15.08838775 39872,6917.884,95.438,540.568,538.93,0.0
52579.0,STARLINK-3893,PAYLOAD,2023-01-28 20:06:21,15.08846612,0.000117,53.2157,193.162,88.2273,271.8853,0.00010375,1.364e-05,0.0,0 STARLINK-3893,1 52579U 22051AV  23028.83775154  .00001364  00000-0  10375-3 0  9996,2 52579  53.2157 193.1620 0001170  88.2273 271.8853 15.08846612 39900,6917.86,95.437,540.535,538.916,0.0
52579.0,STARLINK-3893,PAYLOAD,2023-01-29 10:24:50,15.08832318,0.0001105,53.2171,190.4872,81.5897,278.522,4.9827e-05,5.05e-06,0.0,0 STARLINK-3893,1 52579U 22051AV  23029.43392293  .00000505  00000-0  49827-4 0  9993,2 52579  53.2171 190.4872 0001105  81.5897 278.5220 15.08832318 40060,6917.904,95.438,540.533,539.004,0.0
52579.0,STARLINK-3893,PAYLOAD,2023-01-29 16:46:23,15.08833917,0.0001211,53.2163,189.2966,83.5551,276.5579,6.5579e-06,-1.83e-06,0.0,0 STARLINK-3893,1 52579U 22051AV  23029.69888470 -.00000183  00000-0  65579-5 0  9994,2 52579  53.2163 189.2966 0001211  83.5551 276.5579 15.08833917 40036,6917.899,95.438,540.602,538.926,0.0
52579.0,STARLINK-3893,PAYLOAD,2023-01-30 13:26:23,15.08844537,0.0001215,53.2161,185.4309,82.2643,277.8487,5.5464e-05,5.95e-06,0.0,0 STARLINK-3893,1 52579U 22051AV  23030.55999667  .00000595  00000-0  55464-4 0  9999,2 52579  53.2161 185.4309 0001215  82.2643 277.8487 15.08844537 40161,6917.867,95.437,540.572,538.891,0.0
52579.0,STARLINK-3893,PAYLOAD,2023-01-31 10:06:24,15.08833696,0.0001277,53.2156,181.5653,79.0836,281.0299,5.4396e-05,5.78e-06,0.0,0 STARLINK-3893,1 52579U 22051AV  23031.42112194  .00000578  00000-0  54396-4 0  9992,2 52579  53.2156 181.5653 0001277  79.0836 281.0299 15.08833696 40364,6917.9,95.438,540.648,538.881,0.0
52579.0,STARLINK-3893,PAYLOAD,2023-01-31 18:03:20,15.08840154,0.0001368,53.2156,180.0755,97.8664,262.2483,4.4627e-05,4.22e-06,0.0,0 STARLINK-3893,1 52579U 22051AV  23031.75231810  .00000422  00000-0  44627-4 0  9999,2 52579  53.2156 180.0755 0001368  97.8664 262.2483 15.08840154 40340,6917.88,95.438,540.691,538.799,0.0
52579.0,STARLINK-3893,PAYLOAD,2023-02-01 13:07:59,15.08780113,0.0001046,53.2155,176.5082,123.2915,236.8178,0.00078703,0.00012239,0.0,0 STARLINK-3893,1 52579U 22051AV  23032.54721525  .00012239  00000-0  78703-3 0  9994,2 52579  53.2155 176.5082 0001046 123.2915 236.8178 15.08780113 40467,6918.063,95.441,540.652,539.205,0.0
52579.0,STARLINK-3893,PAYLOAD,2023-02-02 01:51:03,15.08832897,9.28e-05,53.2152,174.13,85.0813,275.0285,-1.8659e-05,-5.85e-06,0.0,0 STARLINK-3893,1 52579U 22051AV  23033.07712229 -.00000585  00000-0 -18659-4 0  9992,2 52579  53.2152 174.1300 0000928  85.0813 275.0285 15.08832897 40619,6917.902,95.438,540.409,539.125,0.0
52579.0,STARLINK-3893,PAYLOAD,2023-02-02 12:58:45,15.08834669,0.0001202,53.2145,172.0498,78.5195,281.5932,3.0003e-06,-2.4e-06,0.0,0 STARLINK-3893,1 52579U 22051AV  23033.54080364 -.00000240  00000-0  30003-5 0  9997,2 52579  53.2145 172.0498 0001202  78.5195 281.5932 15.08834669 40612,6917.897,95.438,540.593,538.93,0.0
52579.0,STARLINK-3893,PAYLOAD,2023-02-03 01:41:51,15.0882748,0.0001343,53.2152,169.6732,66.7716,293.3417,-5.2088e-05,-1.116e-05,0.0,0 STARLINK-3893,1 52579U 22051AV  23034.07073352 -.00001116  00000-0 -52088-4 0  9995,2 52579  53.2152 169.6732 0001343  66.7716 293.3417 15.08827480 40765,6917.919,95.438,540.713,538.855,0.0
52579.0,STARLINK-3893,PAYLOAD,2023-02-03 11:14:15,15.08777493,0.000136,53.2162,167.8854,81.6471,278.4675,-0.00049301,-8.112e-05,0.0,0 STARLINK-3893,1 52579U 22051AV  23034.46822938 -.00008112  00000-0 -49301-3 0  9996,2 52579  53.2162 167.8854 0001360  81.6471 278.4675 15.08777493 40829,6918.071,95.442,540.877,538.996,0.0
52579.0,STARLINK-3893,PAYLOAD,2023-02-04 06:18:48,15.08847658,0.0001227,53.2168,164.3186,77.8047,282.3082,0.00032098,4.825e-05,0.0,0 STARLINK-3893,1 52579U 22051AV  23035.26306308  .00004825  00000-0  32098-3 0  9993,2 52579  53.2168 164.3186 0001227  77.8047 282.3082 15.08847658 40943,6917.857,95.437,540.571,538.873,0.0
52579.0,STARLINK-3893,PAYLOAD,2023-02-04 14:15:43,15.08861302,0.0001249,53.2158,162.8317,92.8113,267.3022,0.00034234,5.168e-05,0.0,0 STARLINK-3893,1 52579U 22051AV  23035.59425055  .00005168  00000-0  34234-3 0  9995,2 52579  53.2158 162.8317 0001249  92.8113 267.3022 15.08861302 40990,6917.815,95.436,540.544,538.816,0.0
52579.0,STARLINK-3893,PAYLOAD,2023-02-04 17:26:29,15.0886606,0.0001298,53.2158,162.2376,87.6804,272.4336,0.00041446,6.319e-05,0.0,0 STARLINK-3893,1 52579U 22051AV  23035.72672489  .00006319  00000-0  41446-3 0  9997,2 52579  53.2158 162.2376 0001298  87.6804 272.4336 15.08866060 40948,6917.801,95.436,540.564,538.768,0.0
52579.0,STARLINK-3893,PAYLOAD,2023-02-05 02:58:48,15.08828918,0.0001316,53.2155,160.4547,77.8325,282.2815,0.00073441,0.00011416,0.0,0 STARLINK-3893,1 52579U 22051AV  23036.12417605  .00011416  00000-0  73441-3 0  9993,2 52579  53.2155 160.4547 0001316  77.8325 282.2815 15.08828918 41071,6917.914,95.438,540.69,538.869,0.0
52579.0,STARLINK-3893,PAYLOAD,2023-02-05 14:06:30,15.08844944,0.0001049,53.2154,158.3706,100.461,259.65,0.00040887,6.226e-05,0.0,0 STARLINK-3893,1 52579U 22051AV  23036.58785865  .00006226  00000-0  40887-3 0  9990,2 52579  53.2154 158.3706 0001049 100.4610 259.6500 15.08844944 41072,6917.865,95.437,540.456,539.005,0.0
52579.0,STARLINK-3893,PAYLOAD,2023-02-05 15:41:53,15.08847399,0.0001056,53.2154,158.0731,99.7115,260.3996,0.00042164,6.43e-05,0.0,0 STARLINK-3893,1 52579U 22051AV  23036.65409667  .00006430  00000-0  42164-3 0  9998,2 52579  53.2154 158.0731 0001056  99.7115 260.3996 15.08847399 41081,6917.858,95.437,540.453,538.992,0.0
